{
  "version": 0.6,
  "generator": "Overpass API 0.7.62.7 375dc00a",
  "osm3s": {
    "timestamp_osm_base": "2025-07-09T12:08:30Z",
    "copyright": "The data included in this document is from www.openstreetmap.org. The data is made available under ODbL."
  },
  "elements": [

{
  "type": "way",
  "id": 29989787,
  "bounds": {
    "minlat": 52.3589151,
    "minlon": 4.8834356,
    "maxlat": 52.3608067,
    "maxlon": 4.8865559
  },
  "nodes": [
    4396030065,
    4396030066,
    4396030069,
    10198298339,
    330144648,
    330723850,
    3930519203,
    330144649,
    3930539994,
    330144546,
    11410652081,
    11410652082,
    11410652083,
    3930519208,
    3930519204,
    3930519202,
    3930519201,
    11410652084,
    330144547,
    11410652085,
    330144548,
    11410652086,
    11410652087,
    11410652088,
    4395476118,
    3930519205,
    11410652090,
    11410652091,
    11410652089,
    3930519217,
    12600634863,
    3930519210,
    11410582864,
    11410582863,
    806541635,
    330144549,
    11410582867,
    11410582866,
    11410582865,
    11410582868,
    4395476134,
    11410652069,
    11410652070,
    3931144308,
    11410652071,
    3931472391,
    11410652072,
    806535141,
    11410652073,
    12214993152,
    806545991,
    11410652074,
    11410652075,
    330144640,
    11410652076,
    11410652077,
    4395476154,
    330144642,
    330144643,
    3931144274,
    3701475270,
    330144644,
    3931144281,
    330144645,
    4396030085,
    4396030088,
    4396030065
  ],
  "geometry": [
    { "lat": 52.3596918, "lon": 4.8846391 },
    { "lat": 52.3593810, "lon": 4.8842178 },
    { "lat": 52.3593396, "lon": 4.8841617 },
    { "lat": 52.3593328, "lon": 4.8841537 },
    { "lat": 52.3593058, "lon": 4.8841128 },
    { "lat": 52.3593463, "lon": 4.8840380 },
    { "lat": 52.3598125, "lon": 4.8837005 },
    { "lat": 52.3601878, "lon": 4.8834356 },
    { "lat": 52.3602463, "lon": 4.8835166 },
    { "lat": 52.3602819, "lon": 4.8835625 },
    { "lat": 52.3604795, "lon": 4.8843098 },
    { "lat": 52.3605164, "lon": 4.8844286 },
    { "lat": 52.3605325, "lon": 4.8844786 },
    { "lat": 52.3605714, "lon": 4.8845796 },
    { "lat": 52.3605803, "lon": 4.8845983 },
    { "lat": 52.3606592, "lon": 4.8847657 },
    { "lat": 52.3606802, "lon": 4.8848081 },
    { "lat": 52.3607471, "lon": 4.8849375 },
    { "lat": 52.3607631, "lon": 4.8849668 },
    { "lat": 52.3607747, "lon": 4.8849908 },
    { "lat": 52.3607841, "lon": 4.8850140 },
    { "lat": 52.3607926, "lon": 4.8850422 },
    { "lat": 52.3607986, "lon": 4.8850672 },
    { "lat": 52.3608038, "lon": 4.8850988 },
    { "lat": 52.3608067, "lon": 4.8851332 },
    { "lat": 52.3608055, "lon": 4.8851760 },
    { "lat": 52.3608052, "lon": 4.8852044 },
    { "lat": 52.3608006, "lon": 4.8852412 },
    { "lat": 52.3607937, "lon": 4.8852723 },
    { "lat": 52.3607818, "lon": 4.8853071 },
    { "lat": 52.3607682, "lon": 4.8853339 },
    { "lat": 52.3605978, "lon": 4.8856710 },
    { "lat": 52.3604978, "lon": 4.8858361 },
    { "lat": 52.3604478, "lon": 4.8859371 },
    { "lat": 52.3603682, "lon": 4.8861233 },
    { "lat": 52.3602200, "lon": 4.8864171 },
    { "lat": 52.3602010, "lon": 4.8864472 },
    { "lat": 52.3601805, "lon": 4.8864858 },
    { "lat": 52.3601661, "lon": 4.8865047 },
    { "lat": 52.3601442, "lon": 4.8865235 },
    { "lat": 52.3601191, "lon": 4.8865401 },
    { "lat": 52.3601005, "lon": 4.8865499 },
    { "lat": 52.3600815, "lon": 4.8865556 },
    { "lat": 52.3600571, "lon": 4.8865559 },
    { "lat": 52.3600302, "lon": 4.8865480 },
    { "lat": 52.3600051, "lon": 4.8865371 },
    { "lat": 52.3599709, "lon": 4.8865084 },
    { "lat": 52.3599351, "lon": 4.8864734 },
    { "lat": 52.3598788, "lon": 4.8864241 },
    { "lat": 52.3598672, "lon": 4.8864162 },
    { "lat": 52.3598190, "lon": 4.8863838 },
    { "lat": 52.3597796, "lon": 4.8863622 },
    { "lat": 52.3597451, "lon": 4.8863462 },
    { "lat": 52.3596984, "lon": 4.8863302 },
    { "lat": 52.3596650, "lon": 4.8863245 },
    { "lat": 52.3596304, "lon": 4.8863188 },
    { "lat": 52.3593966, "lon": 4.8862952 },
    { "lat": 52.3589951, "lon": 4.8862543 },
    { "lat": 52.3589151, "lon": 4.8861559 },
    { "lat": 52.3589264, "lon": 4.8860735 },
    { "lat": 52.3590353, "lon": 4.8852784 },
    { "lat": 52.3590851, "lon": 4.8849098 },
    { "lat": 52.3591531, "lon": 4.8844218 },
    { "lat": 52.3591928, "lon": 4.8843399 },
    { "lat": 52.3592270, "lon": 4.8843860 },
    { "lat": 52.3595792, "lon": 4.8848639 },
    { "lat": 52.3596918, "lon": 4.8846391 }
  ],
  "tags": {
    "area": "yes",
    "check_date:opening_hours": "2021-08-08",
    "fee": "yes",
    "heritage": "2",
    "heritage:operator": "rce",
    "int_name": "Rijksmuseum Amsterdam",
    "museum": "art;history",
    "museum_type": "national",
    "name": "Rijksmuseum",
    "name:de": "Reichsmuseum",
    "name:ko": "국립미술관",
    "name:nl": "Rijksmuseum",
    "name:uk": "Рейксмузей",
    "opening_hours": "Mo-Su 09:00-17:00",
    "payment:museumkaart": "yes",
    "start_date": "1885-07-13",
    "toilets:wheelchair": "yes",
    "tourism": "museum",
    "website": "https://www.rijksmuseum.nl/",
    "wheelchair": "yes",
    "wikidata": "Q190804",
    "wikimedia_commons": "Category:Rijksmuseum Amsterdam",
    "wikipedia": "nl:Rijksmuseum Amsterdam"
  }
},
{
  "type": "node",
  "id": 34050759,
  "lat": 52.3634640,
  "lon": 4.8933781,
  "tags": {
    "addr:city": "Amsterdam",
    "addr:housenumber": "672",
    "addr:postcode": "1017ET",
    "addr:street": "Keizersgracht",
    "check_date": "2024-05-12",
    "fee": "yes",
    "int_name": "Museum Van Loon",
    "name": "Museum Van Loon",
    "name:nl": "Museum Van Loon",
    "name:zh": "范隆博物館",
    "opening_hours": "Mo-Su 10:00-17:00; Dec 24,31 10:00-15:00; Apr 27,Dec 25,Jan 1 off",
    "payment:apple_pay": "yes",
    "payment:cash": "no",
    "payment:girocard": "yes",
    "payment:google_pay": "yes",
    "payment:maestro": "yes",
    "payment:mastercard": "yes",
    "payment:visa": "yes",
    "phone": "+31 20 624 5255",
    "source": "BAG",
    "source:date": "2014-02-11",
    "tourism": "museum",
    "website": "https://www.museumvanloon.nl/",
    "wheelchair": "no",
    "wikidata": "Q2191110",
    "wikimedia_commons": "Category:Museum Van Loon",
    "wikipedia": "nl:Museum Van Loon"
  }
},
{
  "type": "node",
  "id": 250624672,
  "lat": 52.3639884,
  "lon": 4.8932631,
  "tags": {
    "addr:city": "Amsterdam",
    "addr:country": "NL",
    "addr:housenumber": "609",
    "addr:postcode": "1017DS",
    "addr:street": "Keizersgracht",
    "description": "Fotografiemuseum Amsterdam",
    "email": "info@foam.org",
    "fee": "yes",
    "name": "foam",
    "name:zh": "荷兰摄影博物馆",
    "opening_hours": "Sa-We 10:00-18:00; Th-Fr 10:00-21:00",
    "phone": "+31 20 551 6500",
    "source": "BAG",
    "source:date": "2014-02-11",
    "toilets:wheelchair": "yes",
    "tourism": "museum",
    "website": "https://www.foam.org/",
    "wheelchair": "no",
    "wikidata": "Q5422840",
    "wikimedia_commons": "Category:Fotografiemuseum Amsterdam",
    "wikipedia": "nl:Foam Fotografiemuseum Amsterdam"
  }
},
{
  "type": "node",
  "id": 1299850584,
  "lat": 52.3627156,
  "lon": 4.8829059,
  "tags": {
    "email": "euwemec@xs4all.nl",
    "fee": "no",
    "name": "Max Euwe Centrum",
    "opening_hours": "Tu-Sa 12:00-16:00",
    "phone": "+31 20 625 7017",
    "tourism": "museum",
    "website": "https://www.maxeuwe.nl/",
    "wikidata": "Q2533298",
    "wikimedia_commons": "Category:Max Euwe Centrum",
    "wikipedia": "nl:Max Euwe Centrum"
  }
},
{
  "type": "node",
  "id": 2725914421,
  "lat": 52.3656060,
  "lon": 4.8915478,
  "tags": {
    "addr:city": "Amsterdam",
    "addr:housenumber": "497",
    "addr:street": "Herengracht",
    "contact:facebook": "https://www.facebook.com/CatCabinet",
    "contact:instagram": "https://www.instagram.com/het.kattenkabinet/",
    "email": "info@kattenkabinet.nl",
    "name": "Kattenkabinet",
    "name:de": "Katzenmuseum",
    "name:en": "Cat Cabinet",
    "name:nl": "Kattenkabinet",
    "name:ru": "Музей кошек",
    "opening_hours": "Sa,Su 12:00-17:00; Mo-Fr 10:00-17:00",
    "phone": "+31 20 626 9040",
    "toilets": "yes",
    "toilets:access": "customers",
    "tourism": "museum",
    "website": "https://www.kattenkabinet.nl/",
    "wheelchair": "no",
    "wikidata": "Q2916386",
    "wikimedia_commons": "Category:KattenKabinet",
    "wikipedia": "nl:KattenKabinet"
  }
},
{
  "type": "node",
  "id": 2816504554,
  "lat": 52.3587165,
  "lon": 4.8819619,
  "tags": {
    "addr:city": "Amsterdam",
    "addr:housenumber": "20",
    "addr:postcode": "1071DE",
    "addr:street": "Honthorststraat",
    "alt_name": "Modern Contemporary Museum",
    "check_date": "2025-03-15",
    "email": "hello@mocomuseum.com",
    "fee": "yes",
    "name": "Moco Museum",
    "opening_hours": "Mo-Th, Su 09:00-19:00; Fr, Sa 09:00-20:00",
    "phone": "+31 20 370 1997",
    "source": "BAG",
    "source:date": "2014-03-24",
    "tourism": "museum",
    "website": "https://mocomuseum.com/",
    "wheelchair": "no",
    "wikidata": "Q26832671",
    "wikimedia_commons": "Category:Modern Contemporary (Moco) Museum, Amsterdam",
    "wikipedia": "nl:Moco Museum"
  }
},
{
  "type": "node",
  "id": 2817515795,
  "lat": 52.3578404,
  "lon": 4.8917840,
  "tags": {
    "addr:city": "Amsterdam",
    "addr:country": "NL",
    "addr:housenumber": "78",
    "addr:postcode": "1072AE",
    "addr:street": "Stadhouderskade",
    "fee": "yes",
    "name": "Heineken Experience",
    "name:en": "Heineken Experience",
    "name:zh": "海尼根體驗館",
    "opening_hours": "Mo-Th 10:30-19:30; Fr-Su 10:30-21:00",
    "source": "BAG",
    "source:date": "2014-03-24",
    "toilets:wheelchair": "yes",
    "tourism": "museum",
    "website": "https://heineken.com/Heineken-Experience",
    "wheelchair": "yes",
    "wikidata": "Q2087161",
    "wikimedia_commons": "Category:Heineken Experience",
    "wikipedia": "nl:Heineken Experience"
  }
},
{
  "type": "node",
  "id": 4362812617,
  "lat": 52.3611910,
  "lon": 4.8721123,
  "tags": {
    "addr:city": "Amsterdam",
    "addr:housenumber": "140",
    "addr:postcode": "1054GT",
    "addr:street": "Vondelstraat",
    "email": "contact@levendpaardenmuseum.nl",
    "fee": "yes",
    "name": "Levend Paardenmuseum",
    "opening_hours": "Tu-Fr 13:00-19:00; Sa,Su 11:00-17:00; Apr 27,easter +49 days,Jan 1 off",
    "opening_hours:url": "https://levendpaardenmuseum.nl/openingstijden/",
    "tourism": "museum",
    "website": "https://levendpaardenmuseum.nl/",
    "wikidata": "Q110995934"
  }
},
{
  "type": "node",
  "id": 8335928712,
  "lat": 52.3641246,
  "lon": 4.8853385,
  "tags": {
    "addr:city": "Amsterdam",
    "addr:housenumber": "488",
    "addr:postcode": "1017KH",
    "addr:street": "Prinsengracht",
    "email": "info@pipemuseum.nl",
    "fee": "yes",
    "name": "Pijpenkabinet",
    "name:en": "Amsterdam Pipe Museum",
    "name:nl": "Pijpenkabinet",
    "name:ru": "Музей трубок",
    "opening_hours": "Mo-Sa 12:00-18:00",
    "phone": "+31 20 421 1779",
    "source": "BAG",
    "source:date": "2021-01-08",
    "tourism": "museum",
    "website": "https://www.pipemuseum.nl",
    "wikidata": "Q2218690",
    "wikimedia_commons": "Category:Amsterdam Pipe Museum",
    "wikipedia": "nl:Amsterdam Pipe Museum"
  }
},
{
  "type": "node",
  "id": 10946356652,
  "lat": 52.3594104,
  "lon": 4.8825054,
  "tags": {
    "addr:city": "Amsterdam",
    "addr:housenumber": "8",
    "addr:postcode": "1071CZ",
    "addr:street": "Paulus Potterstraat",
    "check_date": "2025-03-15",
    "email": "info@diamantmuseumamsterdam.nl",
    "fee": "yes",
    "name": "Diamant Museum Amsterdam",
    "name:de": "Diamantenmuseum Amsterdam",
    "name:en": "Diamond Museum Amsterdam",
    "name:nl": "Diamant Museum Amsterdam",
    "opening_hours": "Mo-Su 09:00-17:00",
    "phone": "+31 20 305 5300",
    "tourism": "museum",
    "website": "https://diamonds-amsterdam.com/",
    "wheelchair": "yes",
    "wikidata": "Q1208561",
    "wikimedia_commons": "Category:Diamant Museum in Amsterdam",
    "wikipedia": "nl:Diamantmuseum (Amsterdam)"
  }
},
{
  "type": "node",
  "id": 11185144775,
  "lat": 52.3624141,
  "lon": 4.8835477,
  "tags": {
    "check_date": "2025-03-16",
    "contact:email": "contact@rembrandtsamsterdam.com",
    "contact:facebook": "https://www.facebook.com/rembrandtsamsterdam",
    "contact:phone": "+31 20 226 9094",
    "name": "Rembrandts Amsterdam Experience",
    "tourism": "museum",
    "website": "https://rembrandtsamsterdam.com/"
  }
},
{
  "type": "way",
  "id": 44508819,
  "bounds": {
    "minlat": 52.3574024,
    "minlon": 4.8789348,
    "maxlat": 52.3584139,
    "maxlon": 4.8807358
  },
  "nodes": [
    875597336,
    875605193,
    4051951353,
    565497961,
    565497929,
    2816506924,
    2816506923,
    2816506942,
    2816506943,
    565497937,
    565497931,
    565497934,
    565497933,
    2816507105,
    2816507104,
    2816507106,
    2816507111,
    2816507112,
    565497938,
    2816507121,
    2816507123,
    2816507126,
    2816507125,
    565497940,
    565497939,
    565498084,
    565498083,
    2816507140,
    2816507141,
    2816507143,
    2816507142,
    565498082,
    565498085,
    565498092,
    565498087,
    2816507148,
    2816507149,
    2816507151,
    2816507150,
    565498093,
    2816507146,
    2816507147,
    2816507145,
    2816507144,
    565498094,
    565498090,
    565498086,
    565498088,
    2816507137,
    2816507139,
    2816507135,
    2816507134,
    875597336
  ],
  "geometry": [
    { "lat": 52.3581024, "lon": 4.8805056 },
    { "lat": 52.3577615, "lon": 4.8807358 },
    { "lat": 52.3575815, "lon": 4.8800660 },
    { "lat": 52.3574024, "lon": 4.8793954 },
    { "lat": 52.3577407, "lon": 4.8791552 },
    { "lat": 52.3577691, "lon": 4.8791349 },
    { "lat": 52.3577679, "lon": 4.8791307 },
    { "lat": 52.3578027, "lon": 4.8791053 },
    { "lat": 52.3578039, "lon": 4.8791097 },
    { "lat": 52.3578315, "lon": 4.8790900 },
    { "lat": 52.3578393, "lon": 4.8791194 },
    { "lat": 52.3579694, "lon": 4.8790302 },
    { "lat": 52.3579613, "lon": 4.8790000 },
    { "lat": 52.3579900, "lon": 4.8789792 },
    { "lat": 52.3579887, "lon": 4.8789743 },
    { "lat": 52.3579925, "lon": 4.8789714 },
    { "lat": 52.3580222, "lon": 4.8789508 },
    { "lat": 52.3580232, "lon": 4.8789546 },
    { "lat": 52.3580521, "lon": 4.8789348 },
    { "lat": 52.3580649, "lon": 4.8789811 },
    { "lat": 52.3580673, "lon": 4.8789794 },
    { "lat": 52.3580824, "lon": 4.8790347 },
    { "lat": 52.3580801, "lon": 4.8790364 },
    { "lat": 52.3580923, "lon": 4.8790829 },
    { "lat": 52.3580593, "lon": 4.8791060 },
    { "lat": 52.3581449, "lon": 4.8794251 },
    { "lat": 52.3581967, "lon": 4.8793888 },
    { "lat": 52.3582272, "lon": 4.8795022 },
    { "lat": 52.3582341, "lon": 4.8794974 },
    { "lat": 52.3582825, "lon": 4.8796804 },
    { "lat": 52.3582762, "lon": 4.8796850 },
    { "lat": 52.3583068, "lon": 4.8797983 },
    { "lat": 52.3582539, "lon": 4.8798365 },
    { "lat": 52.3583400, "lon": 4.8801564 },
    { "lat": 52.3583742, "lon": 4.8801309 },
    { "lat": 52.3583872, "lon": 4.8801767 },
    { "lat": 52.3583891, "lon": 4.8801753 },
    { "lat": 52.3584040, "lon": 4.8802305 },
    { "lat": 52.3584012, "lon": 4.8802325 },
    { "lat": 52.3584139, "lon": 4.8802788 },
    { "lat": 52.3583856, "lon": 4.8802997 },
    { "lat": 52.3583868, "lon": 4.8803040 },
    { "lat": 52.3583533, "lon": 4.8803287 },
    { "lat": 52.3583521, "lon": 4.8803245 },
    { "lat": 52.3583241, "lon": 4.8803451 },
    { "lat": 52.3583161, "lon": 4.8803163 },
    { "lat": 52.3581847, "lon": 4.8804128 },
    { "lat": 52.3581920, "lon": 4.8804394 },
    { "lat": 52.3581626, "lon": 4.8804609 },
    { "lat": 52.3581638, "lon": 4.8804651 },
    { "lat": 52.3581304, "lon": 4.8804898 },
    { "lat": 52.3581293, "lon": 4.8804858 },
    { "lat": 52.3581024, "lon": 4.8805056 }
  ],
  "tags": {
    "addr:city": "Amsterdam",
    "addr:housenumber": "10",
    "addr:postcode": "1071DJ",
    "addr:street": "Museumplein",
    "building": "yes",
    "check_date": "2024-10-23",
    "designation": "picture gallery of modern art",
    "email": "info@stedelijk.nl",
    "fax": "+31 20 675 2716",
    "fee": "yes",
    "int_name": "Stedelijk Museum Amsterdam",
    "name": "Stedelijk Museum Amsterdam",
    "name:de": "Stedelijk Museum",
    "name:en": "Stedelijk Museum Amsterdam",
    "name:es": "Museo Stedelijk",
    "name:ko": "암스테르담 시립 미술관",
    "name:nl": "Stedelijk Museum",
    "name:uk": "Музей Стеделек",
    "name:zh": "阿姆斯特丹市立博物館",
    "opening_hours": "Mo-Su 10:00-18:00",
    "payment:museumkaart": "yes",
    "phone": "+31 20 573 2911",
    "ref:bag": "363100012077791",
    "start_date": "1874",
    "toilets:wheelchair": "yes",
    "tourism": "museum",
    "website": "https://www.stedelijk.nl/",
    "wheelchair": "yes",
    "wikidata": "Q42175133",
    "wikimedia_commons": "Category:Stedelijk Museum Amsterdam",
    "wikipedia": "nl:Stedelijk Museum Amsterdam"
  }
},
{
  "type": "relation",
  "id": 6577680,
  "bounds": {
    "minlat": 52.3577491,
    "minlon": 4.8805611,
    "maxlat": 52.3586574,
    "maxlon": 4.8817257
  },
  "members": [
    {
      "type": "way",
      "ref": 441830027,
      "role": "outer",
      "geometry": [
         { "lat": 52.3578590, "lon": 4.8809944 },
         { "lat": 52.3578666, "lon": 4.8809946 },
         { "lat": 52.3578736, "lon": 4.8809955 },
         { "lat": 52.3578806, "lon": 4.8809967 },
         { "lat": 52.3578876, "lon": 4.8809982 },
         { "lat": 52.3578946, "lon": 4.8810001 },
         { "lat": 52.3579015, "lon": 4.8810022 },
         { "lat": 52.3579084, "lon": 4.8810047 },
         { "lat": 52.3579153, "lon": 4.8810075 },
         { "lat": 52.3579221, "lon": 4.8810106 },
         { "lat": 52.3579288, "lon": 4.8810140 },
         { "lat": 52.3579355, "lon": 4.8810178 },
         { "lat": 52.3579421, "lon": 4.8810218 },
         { "lat": 52.3579487, "lon": 4.8810262 },
         { "lat": 52.3579553, "lon": 4.8810314 },
         { "lat": 52.3579618, "lon": 4.8810368 },
         { "lat": 52.3579683, "lon": 4.8810425 },
         { "lat": 52.3579747, "lon": 4.8810485 },
         { "lat": 52.3579809, "lon": 4.8810548 },
         { "lat": 52.3579871, "lon": 4.8810613 },
         { "lat": 52.3579932, "lon": 4.8810680 },
         { "lat": 52.3579992, "lon": 4.8810750 },
         { "lat": 52.3580050, "lon": 4.8810822 },
         { "lat": 52.3580108, "lon": 4.8810897 },
         { "lat": 52.3580164, "lon": 4.8810974 },
         { "lat": 52.3580219, "lon": 4.8811053 },
         { "lat": 52.3580273, "lon": 4.8811135 },
         { "lat": 52.3580326, "lon": 4.8811219 },
         { "lat": 52.3580377, "lon": 4.8811304 },
         { "lat": 52.3580437, "lon": 4.8811402 },
         { "lat": 52.3580495, "lon": 4.8811503 },
         { "lat": 52.3580551, "lon": 4.8811605 },
         { "lat": 52.3580606, "lon": 4.8811709 },
         { "lat": 52.3580660, "lon": 4.8811816 },
         { "lat": 52.3580712, "lon": 4.8811924 },
         { "lat": 52.3580763, "lon": 4.8812035 },
         { "lat": 52.3580812, "lon": 4.8812147 },
         { "lat": 52.3580859, "lon": 4.8812261 },
         { "lat": 52.3580905, "lon": 4.8812377 },
         { "lat": 52.3580949, "lon": 4.8812495 },
         { "lat": 52.3580991, "lon": 4.8812614 },
         { "lat": 52.3581032, "lon": 4.8812735 },
         { "lat": 52.3581068, "lon": 4.8812839 },
         { "lat": 52.3581103, "lon": 4.8812945 },
         { "lat": 52.3581137, "lon": 4.8813052 },
         { "lat": 52.3581168, "lon": 4.8813160 },
         { "lat": 52.3581198, "lon": 4.8813270 },
         { "lat": 52.3581226, "lon": 4.8813381 },
         { "lat": 52.3581253, "lon": 4.8813492 },
         { "lat": 52.3581278, "lon": 4.8813605 },
         { "lat": 52.3581301, "lon": 4.8813719 },
         { "lat": 52.3581323, "lon": 4.8813834 },
         { "lat": 52.3581343, "lon": 4.8813949 },
         { "lat": 52.3581361, "lon": 4.8814066 },
         { "lat": 52.3581377, "lon": 4.8814183 },
         { "lat": 52.3581392, "lon": 4.8814300 },
         { "lat": 52.3581404, "lon": 4.8814419 },
         { "lat": 52.3581416, "lon": 4.8814508 },
         { "lat": 52.3581426, "lon": 4.8814598 },
         { "lat": 52.3581434, "lon": 4.8814689 },
         { "lat": 52.3581440, "lon": 4.8814780 },
         { "lat": 52.3581444, "lon": 4.8814872 },
         { "lat": 52.3581447, "lon": 4.8814963 },
         { "lat": 52.3581448, "lon": 4.8815055 },
         { "lat": 52.3581447, "lon": 4.8815146 },
         { "lat": 52.3581445, "lon": 4.8815238 },
         { "lat": 52.3581440, "lon": 4.8815329 },
         { "lat": 52.3581434, "lon": 4.8815420 },
         { "lat": 52.3581426, "lon": 4.8815511 },
         { "lat": 52.3581416, "lon": 4.8815601 },
         { "lat": 52.3581405, "lon": 4.8815691 },
         { "lat": 52.3581392, "lon": 4.8815780 },
         { "lat": 52.3581377, "lon": 4.8815868 },
         { "lat": 52.3581360, "lon": 4.8815956 },
         { "lat": 52.3581342, "lon": 4.8816042 },
         { "lat": 52.3581322, "lon": 4.8816128 },
         { "lat": 52.3581300, "lon": 4.8816213 },
         { "lat": 52.3581275, "lon": 4.8816284 },
         { "lat": 52.3581247, "lon": 4.8816354 },
         { "lat": 52.3581219, "lon": 4.8816422 },
         { "lat": 52.3581189, "lon": 4.8816489 },
         { "lat": 52.3581157, "lon": 4.8816554 },
         { "lat": 52.3581124, "lon": 4.8816616 },
         { "lat": 52.3581090, "lon": 4.8816677 },
         { "lat": 52.3581054, "lon": 4.8816736 },
         { "lat": 52.3581017, "lon": 4.8816792 },
         { "lat": 52.3580979, "lon": 4.8816846 },
         { "lat": 52.3580939, "lon": 4.8816898 },
         { "lat": 52.3580898, "lon": 4.8816948 },
         { "lat": 52.3580857, "lon": 4.8816994 },
         { "lat": 52.3580814, "lon": 4.8817039 },
         { "lat": 52.3580770, "lon": 4.8817080 },
         { "lat": 52.3580725, "lon": 4.8817119 },
         { "lat": 52.3580680, "lon": 4.8817156 },
         { "lat": 52.3580634, "lon": 4.8817190 },
         { "lat": 52.3580555, "lon": 4.8817221 },
         { "lat": 52.3580494, "lon": 4.8817234 },
         { "lat": 52.3580434, "lon": 4.8817244 },
         { "lat": 52.3580373, "lon": 4.8817252 },
         { "lat": 52.3580312, "lon": 4.8817256 },
         { "lat": 52.3580251, "lon": 4.8817257 },
         { "lat": 52.3580190, "lon": 4.8817256 },
         { "lat": 52.3580130, "lon": 4.8817251 },
         { "lat": 52.3580069, "lon": 4.8817244 },
         { "lat": 52.3580008, "lon": 4.8817233 },
         { "lat": 52.3579948, "lon": 4.8817220 },
         { "lat": 52.3579888, "lon": 4.8817203 },
         { "lat": 52.3579828, "lon": 4.8817184 },
         { "lat": 52.3579769, "lon": 4.8817162 },
         { "lat": 52.3579703, "lon": 4.8817129 },
         { "lat": 52.3579637, "lon": 4.8817093 },
         { "lat": 52.3579572, "lon": 4.8817053 },
         { "lat": 52.3579508, "lon": 4.8817011 },
         { "lat": 52.3579444, "lon": 4.8816966 },
         { "lat": 52.3579381, "lon": 4.8816919 },
         { "lat": 52.3579319, "lon": 4.8816868 },
         { "lat": 52.3579258, "lon": 4.8816814 },
         { "lat": 52.3579198, "lon": 4.8816758 },
         { "lat": 52.3579139, "lon": 4.8816699 },
         { "lat": 52.3579081, "lon": 4.8816638 },
         { "lat": 52.3579023, "lon": 4.8816573 },
         { "lat": 52.3578967, "lon": 4.8816507 },
         { "lat": 52.3578913, "lon": 4.8816437 },
         { "lat": 52.3578848, "lon": 4.8816357 },
         { "lat": 52.3578785, "lon": 4.8816273 },
         { "lat": 52.3578723, "lon": 4.8816188 },
         { "lat": 52.3578663, "lon": 4.8816100 },
         { "lat": 52.3578603, "lon": 4.8816010 },
         { "lat": 52.3578545, "lon": 4.8815918 },
         { "lat": 52.3578488, "lon": 4.8815824 },
         { "lat": 52.3578433, "lon": 4.8815727 },
         { "lat": 52.3578379, "lon": 4.8815628 },
         { "lat": 52.3578326, "lon": 4.8815528 },
         { "lat": 52.3578275, "lon": 4.8815425 },
         { "lat": 52.3578225, "lon": 4.8815320 },
         { "lat": 52.3578176, "lon": 4.8815216 },
         { "lat": 52.3578127, "lon": 4.8815109 },
         { "lat": 52.3578081, "lon": 4.8815001 },
         { "lat": 52.3578036, "lon": 4.8814892 },
         { "lat": 52.3577992, "lon": 4.8814780 },
         { "lat": 52.3577950, "lon": 4.8814667 },
         { "lat": 52.3577910, "lon": 4.8814553 },
         { "lat": 52.3577871, "lon": 4.8814436 },
         { "lat": 52.3577833, "lon": 4.8814319 },
         { "lat": 52.3577798, "lon": 4.8814200 },
         { "lat": 52.3577764, "lon": 4.8814080 },
         { "lat": 52.3577731, "lon": 4.8813959 },
         { "lat": 52.3577702, "lon": 4.8813847 },
         { "lat": 52.3577674, "lon": 4.8813734 },
         { "lat": 52.3577648, "lon": 4.8813619 },
         { "lat": 52.3577624, "lon": 4.8813504 },
         { "lat": 52.3577601, "lon": 4.8813387 },
         { "lat": 52.3577581, "lon": 4.8813270 },
         { "lat": 52.3577562, "lon": 4.8813152 },
         { "lat": 52.3577546, "lon": 4.8813032 },
         { "lat": 52.3577531, "lon": 4.8812913 },
         { "lat": 52.3577519, "lon": 4.8812792 },
         { "lat": 52.3577508, "lon": 4.8812672 },
         { "lat": 52.3577500, "lon": 4.8812550 },
         { "lat": 52.3577493, "lon": 4.8812429 },
         { "lat": 52.3577491, "lon": 4.8812319 },
         { "lat": 52.3577491, "lon": 4.8812210 },
         { "lat": 52.3577492, "lon": 4.8812101 },
         { "lat": 52.3577496, "lon": 4.8811991 },
         { "lat": 52.3577502, "lon": 4.8811882 },
         { "lat": 52.3577509, "lon": 4.8811773 },
         { "lat": 52.3577518, "lon": 4.8811665 },
         { "lat": 52.3577529, "lon": 4.8811557 },
         { "lat": 52.3577542, "lon": 4.8811449 },
         { "lat": 52.3577557, "lon": 4.8811343 },
         { "lat": 52.3577574, "lon": 4.8811237 },
         { "lat": 52.3577592, "lon": 4.8811132 },
         { "lat": 52.3577609, "lon": 4.8811062 },
         { "lat": 52.3577627, "lon": 4.8810993 },
         { "lat": 52.3577647, "lon": 4.8810926 },
         { "lat": 52.3577668, "lon": 4.8810860 },
         { "lat": 52.3577692, "lon": 4.8810795 },
         { "lat": 52.3577716, "lon": 4.8810733 },
         { "lat": 52.3577742, "lon": 4.8810673 },
         { "lat": 52.3577770, "lon": 4.8810614 },
         { "lat": 52.3577799, "lon": 4.8810558 },
         { "lat": 52.3577829, "lon": 4.8810503 },
         { "lat": 52.3577861, "lon": 4.8810451 },
         { "lat": 52.3577894, "lon": 4.8810401 },
         { "lat": 52.3577928, "lon": 4.8810353 },
         { "lat": 52.3577963, "lon": 4.8810307 },
         { "lat": 52.3578000, "lon": 4.8810264 },
         { "lat": 52.3578037, "lon": 4.8810223 },
         { "lat": 52.3578076, "lon": 4.8810185 },
         { "lat": 52.3578115, "lon": 4.8810150 },
         { "lat": 52.3578155, "lon": 4.8810117 },
         { "lat": 52.3578197, "lon": 4.8810087 },
         { "lat": 52.3578238, "lon": 4.8810059 },
         { "lat": 52.3578281, "lon": 4.8810034 },
         { "lat": 52.3578324, "lon": 4.8810013 },
         { "lat": 52.3578367, "lon": 4.8809994 },
         { "lat": 52.3578412, "lon": 4.8809978 },
         { "lat": 52.3578456, "lon": 4.8809965 },
         { "lat": 52.3578500, "lon": 4.8809955 },
         { "lat": 52.3578545, "lon": 4.8809948 },
         { "lat": 52.3578590, "lon": 4.8809944 }
      ]
    },
    {
      "type": "way",
      "ref": 44508814,
      "role": "outer",
      "geometry": [
         { "lat": 52.3583724, "lon": 4.8815267 },
         { "lat": 52.3583621, "lon": 4.8814872 },
         { "lat": 52.3583043, "lon": 4.8815282 },
         { "lat": 52.3583232, "lon": 4.8815701 },
         { "lat": 52.3583206, "lon": 4.8815733 },
         { "lat": 52.3580822, "lon": 4.8810406 },
         { "lat": 52.3580855, "lon": 4.8810365 },
         { "lat": 52.3581068, "lon": 4.8810817 },
         { "lat": 52.3581229, "lon": 4.8810699 },
         { "lat": 52.3580885, "lon": 4.8809452 },
         { "lat": 52.3582350, "lon": 4.8808404 },
         { "lat": 52.3582187, "lon": 4.8807789 },
         { "lat": 52.3585242, "lon": 4.8805611 },
         { "lat": 52.3585263, "lon": 4.8805687 },
         { "lat": 52.3585245, "lon": 4.8805700 },
         { "lat": 52.3585405, "lon": 4.8806295 },
         { "lat": 52.3585425, "lon": 4.8806281 },
         { "lat": 52.3585927, "lon": 4.8808115 },
         { "lat": 52.3586060, "lon": 4.8808026 },
         { "lat": 52.3586574, "lon": 4.8809911 },
         { "lat": 52.3585922, "lon": 4.8810376 },
         { "lat": 52.3586465, "lon": 4.8812436 },
         { "lat": 52.3585601, "lon": 4.8813060 },
         { "lat": 52.3583724, "lon": 4.8815267 }
      ]
    }
  ],
  "tags": {
    "addr:city": "Amsterdam",
    "addr:country": "NL",
    "addr:housenumber": "7",
    "addr:postcode": "1071CX",
    "addr:street": "Paulus Potterstraat",
    "building": "yes",
    "description": "picture gallery",
    "email": "info@vangoghmuseum.nl",
    "fax": "+31 20 570 5222",
    "fee": "yes",
    "int_name": "Van Gogh Museum",
    "name": "Van Gogh Museum",
    "name:de": "Van-Gogh-Museum",
    "name:en": "Van Gogh Museum",
    "name:ko": "반 고흐 미술관",
    "name:lb": "Van Gogh Musé",
    "name:nl": "Van Gogh Museum",
    "name:ru": "Музей Ван Гога",
    "name:uk": "Музей ван Гога",
    "name:zh": "梵谷博物館",
    "old_name": "Rijksmuseum Vincent van Gogh",
    "opening_hours": "Sa-Th 09:00-18:00; Fr 09:00-22:00",
    "phone": "+31 20 570 5200",
    "tourism": "museum",
    "type": "multipolygon",
    "website": "https://www.vangoghmuseum.nl/",
    "wheelchair": "yes",
    "wikidata": "Q224124",
    "wikimedia_commons": "Category:Van Gogh Museum",
    "wikipedia": "nl:Van Gogh Museum"
  }
}

  ]
}
